ordinal{string},comment{string},originator{string},norad_cat_id{string},object_name{string},object_type{string},classification_type{string},intldes{string},epoch{timestamp},epoch_microseconds{integer},mean_motion{decimal},eccentricity{decimal},inclination{decimal},ra_of_asc_node{decimal},arg_of_pericenter{decimal},mean_anomaly{decimal},ephemeris_type{string},element_set_no{string},rev_at_epoch{integer},bstar{decimal},mean_motion_dot{decimal},mean_motion_ddot{string},file{string},tle_line0{string},tle_line1{string},tle_line2{string},object_id{string},object_number{string},semimajor_axis{decimal},period{decimal},apogee{decimal},perigee{decimal}
1,GENERATED VIA SPACETRACK.ORG API,JSPOC,9595,COSMOS 878,PAYLOAD,U,76118H,2019-02-21T21:59:37Z,9248,12.4890304699999994,0.000734100000000000009,74.0331000000000046,321.277199999999993,203.304699999999997,229.822000000000003,0,999,92434,0.000150530000000000011,7.00000000000000048e-08,0,2414564,0 COSMOS 878,1  9595U 76118H   19052.91640057 +.00000007 +00000-0 +15053-3 0  9994,2  9595 074.0331 321.2772 0007341 203.3047 229.8220 12.48903047924341,1976-118H,9595,7847.22299999999996,115.301000000000002,1474.84899999999993,1463.327
1,GENERATED VIA SPACETRACK.ORG API,JSPOC,43132,PICSAT,PAYLOAD,U,18004X,2019-02-21T22:00:03Z,909024,15.2324692000000006,0.000848099999999999961,97.502600000000001,120.9041,310.016599999999983,50.0324999999999989,0,999,6172,5.19190000000000021e-05,1.15799999999999992e-05,0,2414564,0 PICSAT,1 43132U 18004X   19052.91671191 +.00001158 +00000-0 +51919-4 0  9992,2 43132 097.5026 120.9041 0008481 310.0166 050.0325 15.23246920061724,2018-004X,43132,6874.1909999999998,94.534000000000006,501.886000000000024,490.225999999999999
1,GENERATED VIA SPACETRACK.ORG API,JSPOC,26033,ACRIMSAT,PAYLOAD,U,99070B,2019-02-21T22:00:23Z,532192,14.6226842700000006,0.00273690000000000001,98.0169999999999959,183.480700000000013,207.614200000000011,152.360700000000008,0,999,2207,1.16819999999999993e-05,1.19999999999999989e-07,0,2414564,0 ACRIMSAT,1 26033U 99070B   19052.91693903 +.00000012 +00000-0 +11682-4 0  9991,2 26033 098.0170 183.4807 0027369 207.6142 152.3607 14.62268427022078,1999-070B,26033,7063.99499999999989,98.4770000000000039,705.19399999999996,666.527000000000044
1,GENERATED VIA SPACETRACK.ORG API,JSPOC,41978,FLOCK 3P 57,PAYLOAD,U,17008AG,2019-02-21T22:01:00Z,742080,15.2508268099999995,0.000796599999999999956,97.4205999999999932,121.049999999999997,181.111799999999988,179.010400000000004,0,999,11200,5.37189999999999985e-05,1.27200000000000002e-05,0,2414564,0 FLOCK 3P 57,1 41978U 17008AG  19052.91736970 +.00001272 +00000-0 +53719-4 0  9995,2 41978 097.4206 121.0500 0007966 181.1118 179.0104 15.25082681112001,2017-008AG,41978,6868.67399999999998,94.4210000000000065,496.009999999999991,485.067000000000007
1,GENERATED VIA SPACETRACK.ORG API,JSPOC,25480,ORBCOMM FM 26,PAYLOAD,U,98053F,2019-02-21T22:01:01Z,551648,14.3260556999999995,0.000716700000000000019,45.0093000000000032,326.67489999999998,300.322099999999978,59.6916000000000011,0,999,6652,6.16559999999999938e-05,2.80000000000000019e-07,0,2414564,0 ORBCOMM FM 26,1 25480U 98053F   19052.91737907 +.00000028 +00000-0 +61656-4 0  9992,2 25480 045.0093 326.6749 0007167 300.3221 059.6916 14.32605570066529,1998-053F,25480,7161.17100000000028,100.516000000000005,788.168999999999983,777.903999999999996
1,GENERATED VIA SPACETRACK.ORG API,JSPOC,20735,COSMOS 2090,PAYLOAD,U,90070A,2019-02-21T22:01:07Z,431168,12.6528279000000001,0.00142800000000000002,82.5682000000000045,189.535699999999991,35.8656999999999968,86.1217000000000041,0,999,31797,-1.11980000000000002e-05,8.99999999999999986e-08,0,2414564,0 COSMOS 2090,1 20735U 90070A   19052.91744712 +.00000009 +00000-0 -11198-4 0  9999,2 20735 082.5682 189.5357 0014280 035.8657 086.1217 12.65282790317971,1990-070A,20735,7779.35199999999986,113.808000000000007,1412.32600000000002,1390.10799999999995
1,GENERATED VIA SPACETRACK.ORG API,JSPOC,43884,LEMUR 2 REMY-COLTON,PAYLOAD,U,18111J,2019-02-21T22:01:07Z,184064,14.9643356599999997,0.00131160000000000001,97.727800000000002,322.635600000000011,57.7047999999999988,302.544199999999989,0,999,848,4.83620000000000038e-06,-2.99999999999999973e-08,0,2414564,0 LEMUR 2 REMY-COLTON,1 43884U 18111J   19052.91744426 -.00000003 +00000-0 +48362-5 0  9995,2 43884 097.7278 322.6356 0013116 057.7048 302.5442 14.96433566008486,2018-111J,43884,6956.0630000000001,96.2279999999999944,587.052000000000021,568.80499999999995
1,GENERATED VIA SPACETRACK.ORG API,JSPOC,23463,TSIKADA,PAYLOAD,U,95002A,2019-02-21T22:01:12Z,171072,13.7249441599999997,0.00388030000000000016,82.9288999999999987,191.661599999999993,2.90859999999999985,111.834199999999996,0,999,20587,1.21130000000000007e-05,2.59999999999999999e-07,0,2414564,0 TSIKADA,1 23463U 95002A   19052.91750198 +.00000026 +00000-0 +12113-4 0  9991,2 23463 082.9289 191.6616 0038803 002.9086 111.8342 13.72494416205878,1995-002A,23463,7368.76599999999962,104.918000000000006,1019.22400000000005,962.038000000000011
1,GENERATED VIA SPACETRACK.ORG API,JSPOC,43167,LEMUR 2 TALLHAMN-ATC,PAYLOAD,U,18010E,2019-02-21T22:01:24Z,469248,15.1732168600000001,0.00233190000000000003,82.9218000000000046,128.881400000000014,301.83499999999998,58.061399999999999,0,999,6015,4.51679999999999985e-05,9.39999999999999979e-06,0,2414564,0 LEMUR 2 TALLHAMN-ATC,1 43167U 18010E   19052.91764432 +.00000940 +00000-0 +45168-4 0  9995,2 43167 082.9218 128.8814 0023319 301.8350 058.0614 15.17321686060159,2018-010E,43167,6892.07600000000002,94.9039999999999964,530.011999999999944,497.869000000000028
1,GENERATED VIA SPACETRACK.ORG API,JSPOC,18095,COSMOS 1850,PAYLOAD,U,87049A,2019-02-21T22:01:38Z,455680,14.3319400100000003,0.0015564000000000001,74.0373000000000019,261.673299999999983,210.748199999999997,149.275900000000007,0,999,65700,8.95099999999999951e-06,-2.00000000000000004e-08,0,2414564,0 COSMOS 1850,1 18095U 87049A   19052.91780620 -.00000002 +00000-0 +89510-5 0  9992,2 18095 074.0373 261.6733 0015564 210.7482 149.2759 14.33194001657003,1987-049A,18095,7159.21100000000024,100.474000000000004,792.219000000000051,769.932999999999993
1,GENERATED VIA SPACETRACK.ORG API,JSPOC,8688,COSMOS 803,PAYLOAD,U,76014A,2019-02-21T22:02:01Z,725792,15.3531133200000003,0.00265569999999999999,65.8456999999999937,329.773500000000013,301.01339999999999,58.8402000000000029,0,999,37974,1.17199999999999996e-05,1.79999999999999992e-06,0,2414564,0 COSMOS 803,1  8688U 76014A   19052.91807553 +.00000180 +00000-0 +11720-4 0  9997,2  8688 065.8457 329.7735 0026557 301.0134 058.8402 15.35311332379744,1976-014A,8688,6838.13199999999961,93.7920000000000016,478.156999999999982,441.836999999999989
1,GENERATED VIA SPACETRACK.ORG API,JSPOC,1587,COSMOS 89,PAYLOAD,U,65073D,2019-02-21T22:02:12Z,246720,12.3895470700000008,0.0171104000000000013,56.0591000000000008,12.8788999999999998,19.1068999999999996,341.614899999999977,0,999,41777,1.39919999999999992e-05,-9.09999999999999969e-07,0,2414564,0 COSMOS 89,1  1587U 65073D   19052.91819730 -.00000091 +00000-0 +13992-4 0  9996,2  1587 056.0591 012.8789 0171104 019.1069 341.6149 12.38954707417774,1965-073D,1587,7889.17399999999998,116.227000000000004,1646.02600000000007,1376.05199999999991
1,GENERATED VIA SPACETRACK.ORG API,JSPOC,43883,LEMUR 2 TINYKEV,PAYLOAD,U,18111H,2019-02-21T22:02:41Z,926848,14.9641646399999999,0.00131999999999999999,97.7275000000000063,322.632000000000005,57.3748999999999967,302.874500000000012,0,999,848,2.10699999999999999e-05,1.81000000000000003e-06,0,2414564,0 LEMUR 2 TINYKEV,1 43883U 18111H   19052.91854082 +.00000181 +00000-0 +21070-4 0  9996,2 43883 097.7275 322.6320 0013200 057.3749 302.8745 14.96416464008488,2018-111H,43883,6956.11599999999999,96.2289999999999992,587.163000000000011,568.798999999999978
1,GENERATED VIA SPACETRACK.ORG API,JSPOC,43814,PW-SAT2,PAYLOAD,U,18099BJ,2019-02-21T22:02:59Z,413344,14.9614823900000005,0.000327499999999999992,97.7689000000000021,126.325000000000003,348.647199999999998,11.4674999999999994,0,999,1137,0.000928110000000000003,0.000104019999999999997,0,2414564,0 PW-SAT2,1 43814U 18099BJ  19052.91874321 +.00010402 +00000-0 +92811-3 0  9990,2 43814 097.7689 126.3250 0003275 348.6472 011.4675 14.96148239011371,2018-099BJ,43814,6956.94800000000032,96.2469999999999999,581.091000000000008,576.533999999999992
1,GENERATED VIA SPACETRACK.ORG API,JSPOC,39285,ASTRA 2E,PAYLOAD,U,13056A,2019-02-21T22:03:00Z,144288,1.00274978999999997,0.000225099999999999996,0.0694000000000000034,51.0125000000000028,282.955399999999997,176.807999999999993,0,999,1967,0,1.28000000000000003e-06,0,2414564,0 ASTRA 2E,1 39285U 13056A   19052.91875167 +.00000128 +00000-0 +00000-0 0  9994,2 39285 000.0694 051.0125 0002251 282.9554 176.8080 01.00274979019679,2013-056A,39285,42163.836000000003,1436.05099999999993,35795.1920000000027,35776.2099999999991
1,GENERATED VIA SPACETRACK.ORG API,JSPOC,38775,BEIDOU 15,PAYLOAD,U,12050B,2019-02-21T22:03:01Z,818720,1.86232230999999993,0.0021570999999999999,54.9284000000000034,152.541599999999988,242.768200000000007,114.022000000000006,0,999,4389,0,2.99999999999999973e-08,0,2414299,0 BEIDOU 15,1 38775U 12050B   19052.91877105  .00000003  00000-0  00000+0 0  9995,2 38775  54.9284 152.5416 0021571 242.7682 114.0220  1.86232231 43897,2012-050B,38775,27906.0649999999987,773.227999999999952,21588.1260000000002,21467.7340000000004
1,GENERATED VIA SPACETRACK.ORG API,JSPOC,42877,FLOCK 2K 35,PAYLOAD,U,17042BE,2019-02-21T22:03:11Z,606112,15.3833459300000008,0.00095620000000000004,96.9561000000000064,301.795000000000016,278.111300000000028,81.9048999999999978,0,999,9001,0.000116739999999999997,4.33999999999999978e-05,0,2414564,0 FLOCK 2K 35,1 42877U 17042BE  19052.91888433 +.00004340 +00000-0 +11674-3 0  9996,2 42877 096.9561 301.7950 0009562 278.1113 081.9049 15.38334593090011,2017-042BE,42877,6829.17000000000007,93.6069999999999993,457.564999999999998,444.504999999999995
